start=new Date('2021-11-12T00:00:00.000Z').valueOf();
sats=[{"LAUNCH_DATE":"2020-10-06","OBJECT_ID":"2020-070BE","EPHEMERIS_TYPE":"0","MEAN_ANOMALY":"291.6168","NORAD_CAT_ID":"46584","FILE":"3212485","CLASSIFICATION_TYPE":"U","OBJECT_TYPE":"PAYLOAD","TLE_LINE1":"1 46584U 20070BE  21315.61814477 -.00001045  00000-0 -51268-4 0  9994","GP_ID":"189525994","COUNTRY_CODE":"US","MEAN_ELEMENT_THEORY":"SGP4","BSTAR":"-0.00005126800000","PERIAPSIS":"546.302","TLE_LINE2":"2 46584  53.0558  45.3395 0001305  68.4960 291.6168 15.06402645 61784","INCLINATION":"53.0558","TIME_SYSTEM":"UTC","RCS_SIZE":"LARGE","EPOCH":"2021-11-11T14:50:07.708128","ELEMENT_SET_NO":"999","SEMIMAJOR_AXIS":"6925.340","REV_AT_EPOCH":"6178","APOAPSIS":"548.109","PERIOD":"95.592","OBJECT_NAME":"STARLINK-1732","DECAY_DATE":null,"ECCENTRICITY":"0.00013050","ARG_OF_PERICENTER":"68.4960","MEAN_MOTION_DDOT":"0.0000000000000","MEAN_MOTION":"15.06402645","REF_FRAME":"TEME","RA_OF_ASC_NODE":"45.3395","SITE":"AFETR","MEAN_MOTION_DOT":"-0.00001045","CENTER_NAME":"EARTH"},{"PERIOD":"95.592","ELEMENT_SET_NO":"999","SEMIMAJOR_AXIS":"6925.362","REV_AT_EPOCH":"6147","APOAPSIS":"547.980","RCS_SIZE":"LARGE","EPOCH":"2021-11-11T13:41:07.672416","TIME_SYSTEM":"UTC","INCLINATION":"53.0546","MEAN_MOTION_DOT":"-0.00002327","CENTER_NAME":"EARTH","ARG_OF_PERICENTER":"72.2690","MEAN_MOTION_DDOT":"0.0000000000000","MEAN_MOTION":"15.06395761","REF_FRAME":"TEME","SITE":"AFETR","RA_OF_ASC_NODE":"45.5687","OBJECT_NAME":"STARLINK-1736","DECAY_DATE":null,"ECCENTRICITY":"0.00010880","NORAD_CAT_ID":"46585","MEAN_ANOMALY":"287.8417","FILE":"3211843","CLASSIFICATION_TYPE":"U","OBJECT_ID":"2020-070BF","EPHEMERIS_TYPE":"0","LAUNCH_DATE":"2020-10-06","BSTAR":"-0.00013743000000","MEAN_ELEMENT_THEORY":"SGP4","PERIAPSIS":"546.473","TLE_LINE2":"2 46585  53.0546  45.5687 0001088  72.2690 287.8417 15.06395761 61479","COUNTRY_CODE":"US","TLE_LINE1":"1 46585U 20070BF  21315.57022769 -.00002327  00000-0 -13743-3 0  9994","GP_ID":"189467143","OBJECT_TYPE":"PAYLOAD"},{"OBJECT_TYPE":"PAYLOAD","TLE_LINE1":"1 46586U 20070BG  21315.55916856  .00001143  00000-0  95569-4 0  9992","GP_ID":"189493956","COUNTRY_CODE":"US","MEAN_ELEMENT_THEORY":"SGP4","BSTAR":"0.00009556900000","PERIAPSIS":"546.370","TLE_LINE2":"2 46586  53.0555  45.6144 0001190  82.1813 277.9311 15.06406352 61775","LAUNCH_DATE":"2020-10-06","OBJECT_ID":"2020-070BG","EPHEMERIS_TYPE":"0","NORAD_CAT_ID":"46586","MEAN_ANOMALY":"277.9311","FILE":"3212088","CLASSIFICATION_TYPE":"U","DECAY_DATE":null,"OBJECT_NAME":"STARLINK-1737","ECCENTRICITY":"0.00011900","ARG_OF_PERICENTER":"82.1813","MEAN_MOTION_DDOT":"0.0000000000000","MEAN_MOTION":"15.06406352","REF_FRAME":"TEME","SITE":"AFETR","RA_OF_ASC_NODE":"45.6144","MEAN_MOTION_DOT":"0.00001143","CENTER_NAME":"EARTH","INCLINATION":"53.0555","TIME_SYSTEM":"UTC","RCS_SIZE":"LARGE","EPOCH":"2021-11-11T13:25:12.163584","ELEMENT_SET_NO":"999","SEMIMAJOR_AXIS":"6925.329","APOAPSIS":"548.018","REV_AT_EPOCH":"6177","PERIOD":"95.592"},{"SITE":"AFETR","RA_OF_ASC_NODE":"45.3876","MEAN_MOTION_DDOT":"0.0000000000000","ARG_OF_PERICENTER":"77.2623","REF_FRAME":"TEME","MEAN_MOTION":"15.06418314","DECAY_DATE":null,"ECCENTRICITY":"0.00013250","OBJECT_NAME":"STARLINK-1746","CENTER_NAME":"EARTH","MEAN_MOTION_DOT":"-0.00006047","RCS_SIZE":"LARGE","EPOCH":"2021-11-11T14:34:11.878752","INCLINATION":"53.0553","TIME_SYSTEM":"UTC","PERIOD":"95.591","ELEMENT_SET_NO":"999","SEMIMAJOR_AXIS":"6925.292","REV_AT_EPOCH":"6178","APOAPSIS":"548.075","TLE_LINE1":"1 46588U 20070BJ  21315.60708193 -.00006047  00000-0 -38722-3 0  9990","GP_ID":"189527744","OBJECT_TYPE":"PAYLOAD","PERIAPSIS":"546.240","TLE_LINE2":"2 46588  53.0553  45.3876 0001325  77.2623 282.8514 15.06418314 61780","BSTAR":"-0.00038722000000","MEAN_ELEMENT_THEORY":"SGP4","COUNTRY_CODE":"US","LAUNCH_DATE":"2020-10-06","CLASSIFICATION_TYPE":"U","NORAD_CAT_ID":"46588","MEAN_ANOMALY":"282.8514","FILE":"3212485","EPHEMERIS_TYPE":"0","OBJECT_ID":"2020-070BJ"},{"PERIOD":"95.592","SEMIMAJOR_AXIS":"6925.353","ELEMENT_SET_NO":"999","APOAPSIS":"548.034","REV_AT_EPOCH":"6179","RCS_SIZE":"LARGE","EPOCH":"2021-11-11T17:34:41.661696","TIME_SYSTEM":"UTC","INCLINATION":"53.0551","MEAN_MOTION_DOT":"0.00004522","CENTER_NAME":"EARTH","ARG_OF_PERICENTER":"70.5891","MEAN_MOTION_DDOT":"0.0000000000000","MEAN_MOTION":"15.06398666","REF_FRAME":"TEME","SITE":"AFETR","RA_OF_ASC_NODE":"44.8296","ECCENTRICITY":"0.00011790","DECAY_DATE":null,"OBJECT_NAME":"STARLINK-1749","NORAD_CAT_ID":"46589","MEAN_ANOMALY":"289.5225","FILE":"3212485","CLASSIFICATION_TYPE":"U","OBJECT_ID":"2020-070BK","EPHEMERIS_TYPE":"0","LAUNCH_DATE":"2020-10-06","MEAN_ELEMENT_THEORY":"SGP4","BSTAR":"0.00032231000000","PERIAPSIS":"546.401","TLE_LINE2":"2 46589  53.0551  44.8296 0001179  70.5891 289.5225 15.06398666 61790","COUNTRY_CODE":"US","TLE_LINE1":"1 46589U 20070BK  21315.73242664  .00004522  00000-0  32231-3 0  9994","GP_ID":"189526492","OBJECT_TYPE":"PAYLOAD"},{"PERIAPSIS":"438.795","TLE_LINE2":"2 46590  53.0499 325.1813 0001322  90.8946 269.2210 15.42174044 62915","MEAN_ELEMENT_THEORY":"SGP4","BSTAR":"0.00003292800000","COUNTRY_CODE":"US","TLE_LINE1":"1 46590U 20070BL  21315.73007959  .00001022  00000-0  32928-4 0  9998","GP_ID":"189526742","OBJECT_TYPE":"PAYLOAD","CLASSIFICATION_TYPE":"U","NORAD_CAT_ID":"46590","MEAN_ANOMALY":"269.2210","FILE":"3212485","EPHEMERIS_TYPE":"0","OBJECT_ID":"2020-070BL","LAUNCH_DATE":"2020-10-06","CENTER_NAME":"EARTH","MEAN_MOTION_DOT":"0.00001022","SITE":"AFETR","RA_OF_ASC_NODE":"325.1813","ARG_OF_PERICENTER":"90.8946","MEAN_MOTION_DDOT":"0.0000000000000","REF_FRAME":"TEME","MEAN_MOTION":"15.42174044","DECAY_DATE":null,"OBJECT_NAME":"STARLINK-1754","ECCENTRICITY":"0.00013220","PERIOD":"93.375","ELEMENT_SET_NO":"999","SEMIMAJOR_AXIS":"6817.831","APOAPSIS":"440.598","REV_AT_EPOCH":"6291","RCS_SIZE":"LARGE","EPOCH":"2021-11-11T17:31:18.876576","TIME_SYSTEM":"UTC","INCLINATION":"53.0499"},{"OBJECT_TYPE":"PAYLOAD","TLE_LINE1":"1 46591U 20070BM  21315.52230817  .00001117  00000-0  93818-4 0  9997","GP_ID":"189493457","COUNTRY_CODE":"US","PERIAPSIS":"546.174","TLE_LINE2":"2 46591  53.0552  45.7893 0001437  79.7727 280.3424 15.06414597 60828","BSTAR":"0.00009381800000","MEAN_ELEMENT_THEORY":"SGP4","LAUNCH_DATE":"2020-10-06","EPHEMERIS_TYPE":"0","OBJECT_ID":"2020-070BM","CLASSIFICATION_TYPE":"U","NORAD_CAT_ID":"46591","MEAN_ANOMALY":"280.3424","FILE":"3212088","DECAY_DATE":null,"OBJECT_NAME":"STARLINK-1755","ECCENTRICITY":"0.00014370","RA_OF_ASC_NODE":"45.7893","SITE":"AFETR","ARG_OF_PERICENTER":"79.7727","MEAN_MOTION_DDOT":"0.0000000000000","MEAN_MOTION":"15.06414597","REF_FRAME":"TEME","CENTER_NAME":"EARTH","MEAN_MOTION_DOT":"0.00001117","TIME_SYSTEM":"UTC","INCLINATION":"53.0552","RCS_SIZE":"LARGE","EPOCH":"2021-11-11T12:32:07.425888","ELEMENT_SET_NO":"999","SEMIMAJOR_AXIS":"6925.304","REV_AT_EPOCH":"6082","APOAPSIS":"548.164","PERIOD":"95.591"},{"TLE_LINE1":"1 46671U 20073B   21315.72686811 -.00001488  00000-0 -81048-4 0  9995","GP_ID":"189526750","OBJECT_TYPE":"PAYLOAD","PERIAPSIS":"546.095","TLE_LINE2":"2 46671  53.0539 134.8602 0001663  82.5091 277.6087 15.06389271 59076","BSTAR":"-0.00008104800000","MEAN_ELEMENT_THEORY":"SGP4","COUNTRY_CODE":"US","LAUNCH_DATE":"2020-10-18","CLASSIFICATION_TYPE":"U","NORAD_CAT_ID":"46671","MEAN_ANOMALY":"277.6087","FILE":"3212485","EPHEMERIS_TYPE":"0","OBJECT_ID":"2020-073B","RA_OF_ASC_NODE":"134.8602","SITE":"AFETR","MEAN_MOTION_DDOT":"0.0000000000000","ARG_OF_PERICENTER":"82.5091","MEAN_MOTION":"15.06389271","REF_FRAME":"TEME","DECAY_DATE":null,"ECCENTRICITY":"0.00016630","OBJECT_NAME":"STARLINK-1715","CENTER_NAME":"EARTH","MEAN_MOTION_DOT":"-0.00001488","RCS_SIZE":"LARGE","EPOCH":"2021-11-11T17:26:41.404704","TIME_SYSTEM":"UTC","INCLINATION":"53.0539","PERIOD":"95.593","ELEMENT_SET_NO":"999","SEMIMAJOR_AXIS":"6925.381","REV_AT_EPOCH":"5907","APOAPSIS":"548.398"},{"INCLINATION":"53.0531","TIME_SYSTEM":"UTC","RCS_SIZE":"LARGE","EPOCH":"2021-11-11T18:24:26.417952","SEMIMAJOR_AXIS":"6925.358","ELEMENT_SET_NO":"999","APOAPSIS":"548.301","REV_AT_EPOCH":"5915","PERIOD":"95.592","ECCENTRICITY":"0.00015560","DECAY_DATE":null,"OBJECT_NAME":"STARLINK-1716","MEAN_MOTION_DDOT":"0.0000000000000","ARG_OF_PERICENTER":"89.0550","MEAN_MOTION":"15.06396879","REF_FRAME":"TEME","RA_OF_ASC_NODE":"129.6737","SITE":"AFETR","MEAN_MOTION_DOT":"0.00000786","CENTER_NAME":"EARTH","LAUNCH_DATE":"2020-10-18","OBJECT_ID":"2020-073C","EPHEMERIS_TYPE":"0","MEAN_ANOMALY":"271.0617","NORAD_CAT_ID":"46672","FILE":"3212485","CLASSIFICATION_TYPE":"U","OBJECT_TYPE":"PAYLOAD","TLE_LINE1":"1 46672U 20073C   21315.76697243  .00000786  00000-0  71648-4 0  9994","GP_ID":"189527004","COUNTRY_CODE":"US","BSTAR":"0.00007164800000","MEAN_ELEMENT_THEORY":"SGP4","PERIAPSIS":"546.146","TLE_LINE2":"2 46672  53.0531 129.6737 0001556  89.0550 271.0617 15.06396879 59151"},{"PERIOD":"95.592","REV_AT_EPOCH":"5894","APOAPSIS":"548.311","SEMIMAJOR_AXIS":"6925.323","ELEMENT_SET_NO":"999","EPOCH":"2021-11-11T19:16:48.682272","RCS_SIZE":"LARGE","INCLINATION":"53.0536","TIME_SYSTEM":"UTC","MEAN_MOTION_DOT":"-0.00000004","CENTER_NAME":"EARTH","REF_FRAME":"TEME","MEAN_MOTION":"15.06408489","ARG_OF_PERICENTER":"67.8585","MEAN_MOTION_DDOT":"0.0000000000000","SITE":"AFETR","RA_OF_ASC_NODE":"144.5219","DECAY_DATE":null,"ECCENTRICITY":"0.00016220","OBJECT_NAME":"STARLINK-1717","FILE":"3212485","NORAD_CAT_ID":"46673","MEAN_ANOMALY":"292.2576","CLASSIFICATION_TYPE":"U","OBJECT_ID":"2020-073D","EPHEMERIS_TYPE":"0","LAUNCH_DATE":"2020-10-18","MEAN_ELEMENT_THEORY":"SGP4","BSTAR":"0.00001863400000","TLE_LINE2":"2 46673  53.0536 144.5219 0001622  67.8585 292.2576 15.06408489 58940","PERIAPSIS":"546.064","COUNTRY_CODE":"US","GP_ID":"189527255","TLE_LINE1":"1 46673U 20073D   21315.80334123 -.00000004  00000-0  18634-4 0  9995","OBJECT_TYPE":"PAYLOAD"}];
